{
  "type": "FeatureCollection",
  "features": [
    {
      "type": "Feature",
      "properties": {
        "norad_id": 59626,
        "name": "LEGION 2",
        "group": "resource",
        "lat": -9.319107498494233,
        "lon": 64.56286362431625,
        "alt_km": 518.8929469245741,
        "timestamp": "2025-12-14T14:39:29.034312+00:00",
        "meta_object_name": "LEGION 2",
        "meta_object_id": "2024-081B",
        "meta_epoch": "2025-12-13T22:51:48.891744",
        "meta_mean_motion": 15.1651029,
        "meta_eccentricity": 0.00056664,
        "meta_inclination": 97.5218,
        "meta_ra_of_asc_node": 62.6679,
        "meta_arg_of_pericenter": 288.5838,
        "meta_mean_anomaly": 71.4779,
        "meta_ephemeris_type": 0,
        "meta_classification_type": "U",
        "meta_norad_cat_id": 59626,
        "meta_element_set_no": 999,
        "meta_rev_at_epoch": 8946,
        "meta_bstar": 0.00033062693,
        "meta_mean_motion_dot": 6.379e-05,
        "meta_mean_motion_ddot": 0,
        "tle_line1": "1 59626U 24081B   25347.95264921  .00006379  00000+0  33063-3 0  9994",
        "tle_line2": "2 59626  97.5218  62.6679 0005666 288.5838  71.4779 15.16510290 89465"
      },
      "geometry": {
        "type": "Point",
        "coordinates": [
          64.56286362431625,
          -9.319107498494233
        ]
      }
    },
    {
      "type": "Feature",
      "properties": {
        "norad_id": 60182,
        "name": "ALOS-4 (DAICHI-4)",
        "group": "resource",
        "lat": 59.925516138542996,
        "lon": -82.65481925171429,
        "alt_km": 624.2353950204206,
        "timestamp": "2025-12-14T14:39:29.034322+00:00",
        "meta_object_name": "ALOS-4 (DAICHI-4)",
        "meta_object_id": "2024-123A",
        "meta_epoch": "2025-12-10T20:50:51.532800",
        "meta_mean_motion": 14.79478132,
        "meta_eccentricity": 0.0001419,
        "meta_inclination": 97.9225,
        "meta_ra_of_asc_node": 79.7424,
        "meta_arg_of_pericenter": 101.2045,
        "meta_mean_anomaly": 258.9326,
        "meta_ephemeris_type": 0,
        "meta_classification_type": "U",
        "meta_norad_cat_id": 60182,
        "meta_element_set_no": 999,
        "meta_rev_at_epoch": 7803,
        "meta_bstar": 0.00039567,
        "meta_mean_motion_dot": 2.905e-05,
        "meta_mean_motion_ddot": 0,
        "tle_line1": "1 60182U 24123A   25344.86865200  .00002905  00000+0  39567-3 0  9990",
        "tle_line2": "2 60182  97.9225  79.7424 0001419 101.2045 258.9326 14.79478132 78033"
      },
      "geometry": {
        "type": "Point",
        "coordinates": [
          -82.65481925171429,
          59.925516138542996
        ]
      }
    },
    {
      "type": "Feature",
      "properties": {
        "norad_id": 60452,
        "name": "LEGION 3",
        "group": "resource",
        "lat": 33.36732589731872,
        "lon": -18.677375095747575,
        "alt_km": 523.0936585739537,
        "timestamp": "2025-12-14T14:39:29.034333+00:00",
        "meta_object_name": "LEGION 3",
        "meta_object_id": "2024-146A",
        "meta_epoch": "2025-12-13T22:36:58.458528",
        "meta_mean_motion": 15.15778383,
        "meta_eccentricity": 0.00150084,
        "meta_inclination": 45.0016,
        "meta_ra_of_asc_node": 303.6855,
        "meta_arg_of_pericenter": 205.1861,
        "meta_mean_anomaly": 154.8287,
        "meta_ephemeris_type": 0,
        "meta_classification_type": "U",
        "meta_norad_cat_id": 60452,
        "meta_element_set_no": 999,
        "meta_rev_at_epoch": 7391,
        "meta_bstar": 0.00033885844,
        "meta_mean_motion_dot": 6.334e-05,
        "meta_mean_motion_ddot": 0,
        "tle_line1": "1 60452U 24146A   25347.94234327  .00006334  00000+0  33886-3 0  9995",
        "tle_line2": "2 60452  45.0016 303.6855 0015008 205.1861 154.8287 15.15778383 73915"
      },
      "geometry": {
        "type": "Point",
        "coordinates": [
          -18.677375095747575,
          33.36732589731872
        ]
      }
    },
    {
      "type": "Feature",
      "properties": {
        "norad_id": 60453,
        "name": "LEGION 4",
        "group": "resource",
        "lat": 31.965804887449632,
        "lon": 70.43623892348207,
        "alt_km": 513.2240189412641,
        "timestamp": "2025-12-14T14:39:29.034343+00:00",
        "meta_object_name": "LEGION 4",
        "meta_object_id": "2024-146B",
        "meta_epoch": "2025-12-13T13:08:21.585984",
        "meta_mean_motion": 15.15836533,
        "meta_eccentricity": 0.00094101,
        "meta_inclination": 45.0394,
        "meta_ra_of_asc_node": 37.5554,
        "meta_arg_of_pericenter": 315.2837,
        "meta_mean_anomaly": 44.7282,
        "meta_ephemeris_type": 0,
        "meta_classification_type": "U",
        "meta_norad_cat_id": 60453,
        "meta_element_set_no": 999,
        "meta_rev_at_epoch": 7270,
        "meta_bstar": 0.0003573693,
        "meta_mean_motion_dot": 6.696e-05,
        "meta_mean_motion_ddot": 0,
        "tle_line1": "1 60453U 24146B   25347.54747206  .00006696  00000+0  35737-3 0  9995",
        "tle_line2": "2 60453  45.0394  37.5554 0009410 315.2837  44.7282 15.15836533 72700"
      },
      "geometry": {
        "type": "Point",
        "coordinates": [
          70.43623892348207,
          31.965804887449632
        ]
      }
    },
    {
      "type": "Feature",
      "properties": {
        "norad_id": 60989,
        "name": "SENTINEL-2C",
        "group": "resource",
        "lat": -79.82398104314814,
        "lon": 118.19940561224745,
        "alt_km": 797.1943002231465,
        "timestamp": "2025-12-14T14:39:29.034353+00:00",
        "meta_object_name": "SENTINEL-2C",
        "meta_object_id": "2024-157A",
        "meta_epoch": "2025-12-13T18:54:45.715104",
        "meta_mean_motion": 14.30818014,
        "meta_eccentricity": 0.00012122,
        "meta_inclination": 98.5682,
        "meta_ra_of_asc_node": 60.2555,
        "meta_arg_of_pericenter": 97.4854,
        "meta_mean_anomaly": 262.6467,
        "meta_ephemeris_type": 0,
        "meta_classification_type": "U",
        "meta_norad_cat_id": 60989,
        "meta_element_set_no": 999,
        "meta_rev_at_epoch": 6647,
        "meta_bstar": 9.1394542e-05,
        "meta_mean_motion_dot": 1.96e-06,
        "meta_mean_motion_ddot": 0,
        "tle_line1": "1 60989U 24157A   25347.78802911  .00000196  00000+0  91395-4 0  9994",
        "tle_line2": "2 60989  98.5682  60.2555 0001212  97.4854 262.6467 14.30818014 66474"
      },
      "geometry": {
        "type": "Point",
        "coordinates": [
          118.19940561224745,
          -79.82398104314814
        ]
      }
    },
    {
      "type": "Feature",
      "properties": {
        "norad_id": 61735,
        "name": "IONOSFERA-M 1",
        "group": "resource",
        "lat": 51.66011805653113,
        "lon": 49.660730410423135,
        "alt_km": 811.5717035099333,
        "timestamp": "2025-12-14T14:39:29.034363+00:00",
        "meta_object_name": "IONOSFERA-M 1",
        "meta_object_id": "2024-199A",
        "meta_epoch": "2025-12-13T22:52:13.722240",
        "meta_mean_motion": 14.2271432,
        "meta_eccentricity": 9.011e-05,
        "meta_inclination": 98.7403,
        "meta_ra_of_asc_node": 217.7918,
        "meta_arg_of_pericenter": 19.9438,
        "meta_mean_anomaly": 340.1775,
        "meta_ephemeris_type": 0,
        "meta_classification_type": "U",
        "meta_norad_cat_id": 61735,
        "meta_element_set_no": 999,
        "meta_rev_at_epoch": 10136,
        "meta_bstar": 5.8545233e-05,
        "meta_mean_motion_dot": 8.7e-07,
        "meta_mean_motion_ddot": 0,
        "tle_line1": "1 61735U 24199A   25347.95293660  .00000087  00000+0  58545-4 0  9993",
        "tle_line2": "2 61735  98.7403 217.7918 0000901  19.9438 340.1775 14.22714320101368"
      },
      "geometry": {
        "type": "Point",
        "coordinates": [
          49.660730410423135,
          51.66011805653113
        ]
      }
    },
    {
      "type": "Feature",
      "properties": {
        "norad_id": 61736,
        "name": "IONOSFERA-M 2",
        "group": "resource",
        "lat": -49.21972083643461,
        "lon": -131.36971434731925,
        "alt_km": 824.1228218712204,
        "timestamp": "2025-12-14T14:39:29.034373+00:00",
        "meta_object_name": "IONOSFERA-M 2",
        "meta_object_id": "2024-199B",
        "meta_epoch": "2025-12-13T23:42:07.018272",
        "meta_mean_motion": 14.22716535,
        "meta_eccentricity": 0.00016787,
        "meta_inclination": 98.7402,
        "meta_ra_of_asc_node": 217.7387,
        "meta_arg_of_pericenter": 108.8242,
        "meta_mean_anomaly": 251.3118,
        "meta_ephemeris_type": 0,
        "meta_classification_type": "U",
        "meta_norad_cat_id": 61736,
        "meta_element_set_no": 999,
        "meta_rev_at_epoch": 10449,
        "meta_bstar": 6.0637894e-05,
        "meta_mean_motion_dot": 9.2e-07,
        "meta_mean_motion_ddot": 0,
        "tle_line1": "1 61736U 24199B   25347.98758123  .00000092  00000+0  60638-4 0  9999",
        "tle_line2": "2 61736  98.7402 217.7387 0001678 108.8242 251.3118 14.22716535104492"
      },
      "geometry": {
        "type": "Point",
        "coordinates": [
          -131.36971434731925,
          -49.21972083643461
        ]
      }
    }
  ]
}